NORAD_CAT_ID,OBJECT_NAME,OBJECT_TYPE,EPOCH,MEAN_MOTION,ECCENTRICITY,INCLINATION,RA_OF_ASC_NODE,ARG_OF_PERICENTER,MEAN_ANOMALY,BSTAR,MEAN_MOTION_DOT,MEAN_MOTION_DDOT,TLE_LINE0,TLE_LINE1,TLE_LINE2,SEMIMAJOR_AXIS,PERIOD,APOGEE,PERIGEE,DECAYED
52869.0,STARLINK-4266,PAYLOAD,2023-10-02 02:29:12,15.08845577,0.0001389,53.2182,47.6264,70.6849,289.4293,9.5558e-05,1.233e-05,0.0,0 STARLINK-4266,1 52869U 22062AR  23275.10361761  .00001233  00000-0  95558-4 0  9991,2 52869  53.2182  47.6264 0001389  70.6849 289.4293 15.08845577 72250,6917.863,95.437,540.689,538.767,0.0
52869.0,STARLINK-4266,PAYLOAD,2023-10-02 08:50:45,15.08835001,0.0001458,53.2174,46.4357,87.0245,273.0913,-9.9239e-05,-1.867e-05,0.0,0 STARLINK-4266,1 52869U 22062AR  23275.36858381 -.00001867  00000-0 -99239-4 0  9993,2 52869  53.2174  46.4357 0001458  87.0245 273.0913 15.08835001 72293,6917.896,95.438,540.769,538.752,0.0
52869.0,STARLINK-4266,PAYLOAD,2023-10-02 15:12:18,15.08841426,0.0001451,53.2187,45.2461,95.0514,265.0644,1.2215e-06,-2.69e-06,0.0,0 STARLINK-4266,1 52869U 22062AR  23275.63354300 -.00000269  00000-0  12215-5 0  9999,2 52869  53.2187  45.2461 0001451  95.0514 265.0644 15.08841426 71841,6917.876,95.437,540.745,538.737,0.0
52869.0,STARLINK-4266,PAYLOAD,2023-10-03 13:27:42,15.0883766,0.0001459,53.2189,41.0839,92.6991,267.4169,2.6777e-05,1.38e-06,0.0,0 STARLINK-4266,1 52869U 22062AR  23276.56090571  .00000138  00000-0  26777-4 0  9990,2 52869  53.2189  41.0839 0001459  92.6991 267.4169 15.08837660 72479,6917.888,95.438,540.762,538.743,0.0
52869.0,STARLINK-4266,PAYLOAD,2023-10-03 15:03:05,15.08840456,0.000139,53.2185,40.7862,89.9591,270.1561,-3.3672e-05,-8.24e-06,0.0,0 STARLINK-4266,1 52869U 22062AR  23276.62714531 -.00000824  00000-0 -33672-4 0  9992,2 52869  53.2185  40.7862 0001390  89.9591 270.1561 15.08840456 71996,6917.879,95.438,540.706,538.782,0.0
52869.0,STARLINK-4266,PAYLOAD,2023-10-04 13:18:28,15.08849945,0.0001536,53.2184,36.6237,87.6486,272.4682,0.00024342,3.589e-05,0.0,0 STARLINK-4266,1 52869U 22062AR  23277.55449575  .00003589  00000-0  24342-3 0  9990,2 52869  53.2184  36.6237 0001536  87.6486 272.4682 15.08849945 72133,6917.85,95.437,540.778,538.652,0.0
52869.0,STARLINK-4266,PAYLOAD,2023-10-04 14:53:51,15.08854434,0.0001421,53.2186,36.3262,89.0301,271.0854,0.00025398,3.758e-05,0.0,0 STARLINK-4266,1 52869U 22062AR  23277.62073214  .00003758  00000-0  25398-3 0  9991,2 52869  53.2186  36.3262 0001421  89.0301 271.0854 15.08854434 72635,6917.836,95.437,540.684,538.718,0.0
52869.0,STARLINK-4266,PAYLOAD,2023-10-05 00:26:10,15.08841701,0.0001463,53.2187,34.5425,89.1296,270.9864,0.0001117,1.49e-05,0.0,0 STARLINK-4266,1 52869U 22062AR  23278.01818213  .00001490  00000-0  11170-3 0  9995,2 52869  53.2187  34.5425 0001463  89.1296 270.9864 15.08841701 72695,6917.875,95.437,540.752,538.728,0.0
52869.0,STARLINK-4266,PAYLOAD,2023-10-05 08:23:07,15.08829957,0.0001322,53.2187,33.0553,96.1457,263.9686,5.1849e-05,5.37e-06,0.0,0 STARLINK-4266,1 52869U 22062AR  23278.34939225  .00000537  00000-0  51849-4 0  9997,2 52869  53.2187  33.0553 0001322  96.1457 263.9686 15.08829957 72741,6917.911,95.438,540.691,538.862,0.0
52869.0,STARLINK-4266,PAYLOAD,2023-10-05 14:44:38,15.08848096,0.000135,53.2176,31.8672,90.3852,269.7295,0.00019457,2.811e-05,0.0,0 STARLINK-4266,1 52869U 22062AR  23278.61433998  .00002811  00000-0  19457-3 0  9998,2 52869  53.2176  31.8672 0001350  90.3852 269.7295 15.08848096 72782,6917.856,95.437,540.655,538.787,0.0
52869.0,STARLINK-4266,PAYLOAD,2023-10-05 14:44:39,15.08846487,0.0001263,53.2178,31.867,90.5413,269.5724,0.00020777,3.021e-05,0.0,0 STARLINK-4266,1 52869U 22062AR  23278.61434102  .00003021  00000-0  20777-3 0  9997,2 52869  53.2178  31.8670 0001263  90.5413 269.5724 15.08846487 72293,6917.861,95.437,540.599,538.852,0.0
52869.0,STARLINK-4266,PAYLOAD,2023-10-06 08:13:54,15.08835341,0.0001506,53.2189,28.5966,89.4767,270.6397,-0.00011279,-2.082e-05,0.0,0 STARLINK-4266,1 52869U 22062AR  23279.34298934 -.00002082  00000-0 -11279-3 0  9994,2 52869  53.2189  28.5966 0001506  89.4767 270.6397 15.08835341 72897,6917.895,95.438,540.801,538.718,0.0
52869.0,STARLINK-4266,PAYLOAD,2023-10-06 14:35:26,15.08842766,0.0001292,53.2181,27.4057,96.1126,264.0013,-5.5362e-05,-1.169e-05,0.0,0 STARLINK-4266,1 52869U 22062AR  23279.60794561 -.00001169  00000-0 -55362-4 0  9997,2 52869  53.2181  27.4057 0001292  96.1126 264.0013 15.08842766 72446,6917.872,95.437,540.631,538.843,0.0
52869.0,STARLINK-4266,PAYLOAD,2023-10-07 11:15:27,15.08835612,0.0001458,53.2202,23.5422,96.0059,264.1099,0.00010651,1.407e-05,0.0,0 STARLINK-4266,1 52869U 22062AR  23280.46907181  .00001407  00000-0  10651-3 0  9991,2 52869  53.2202  23.5422 0001458  96.0059 264.1099 15.08835612 73067,6917.894,95.438,540.767,538.75,0.0
52869.0,STARLINK-4266,PAYLOAD,2023-10-07 12:50:50,15.08840117,0.0001668,53.2196,23.2446,93.6289,266.4894,7.3328e-05,8.79e-06,0.0,0 STARLINK-4266,1 52869U 22062AR  23280.53531027  .00000879  00000-0  73328-4 0  9994,2 52869  53.2196  23.2446 0001668  93.6289 266.4894 15.08840117 72583,6917.88,95.438,540.899,538.591,0.0
52869.0,STARLINK-4266,PAYLOAD,2023-10-07 19:12:22,15.08859251,0.0001554,53.2197,22.0545,94.4432,265.6738,0.00034479,5.206e-05,0.0,0 STARLINK-4266,1 52869U 22062AR  23280.80025917  .00005206  00000-0  34479-3 0  9992,2 52869  53.2197  22.0545 0001554  94.4432 265.6738 15.08859251 73111,6917.822,95.436,540.762,538.612,0.0
52869.0,STARLINK-4266,PAYLOAD,2023-10-07 23:58:33,15.08823326,0.0001428,53.2189,21.1615,98.2414,261.874,-0.00026753,-4.541e-05,0.0,0 STARLINK-4266,1 52869U 22062AR  23280.99899577 -.00004541  00000-0 -26753-3 0  9992,2 52869  53.2189  21.1615 0001428  98.2414 261.8740 15.08823326 73140,6917.931,95.439,540.784,538.808,0.0
52869.0,STARLINK-4266,PAYLOAD,2023-10-08 12:41:38,15.08841349,0.0001743,53.219,18.7834,97.3378,262.7813,0.00014543,2.027e-05,0.0,0 STARLINK-4266,1 52869U 22062AR  23281.52891276  .00002027  00000-0  14543-3 0  9999,2 52869  53.2190  18.7834 0001743  97.3378 262.7813 15.08841349 72736,6917.876,95.437,540.947,538.535,0.0
52869.0,STARLINK-4266,PAYLOAD,2023-10-08 14:17:00,15.08851901,0.0001432,53.2189,18.4853,95.8995,264.2161,0.00028592,4.267e-05,0.0,0 STARLINK-4266,1 52869U 22062AR  23281.59514687  .00004267  00000-0  28592-3 0  9991,2 52869  53.2189  18.4853 0001432  95.8995 264.2161 15.08851901 73239,6917.844,95.437,540.7,538.718,0.0
52869.0,STARLINK-4266,PAYLOAD,2023-10-08 23:49:19,15.08847461,0.0001595,53.2191,16.701,83.2476,276.8698,0.00017707,2.532e-05,0.0,0 STARLINK-4266,1 52869U 22062AR  23281.99258924  .00002532  00000-0  17707-3 0  9993,2 52869  53.2191  16.7010 0001595  83.2476 276.8698 15.08847461 73299,6917.858,95.437,540.826,538.619,0.0
52869.0,STARLINK-4266,PAYLOAD,2023-10-09 12:32:24,15.08855982,0.000127,53.2172,14.3225,75.0438,285.0695,0.00028559,4.262e-05,0.0,0 STARLINK-4266,1 52869U 22062AR  23282.52250287  .00004262  00000-0  28559-3 0  9996,2 52869  53.2172  14.3225 0001270  75.0438 285.0695 15.08855982 72887,6917.832,95.437,540.575,538.818,0.0
52869.0,STARLINK-4266,PAYLOAD,2023-10-10 12:23:11,15.08850783,0.000158,53.2186,9.8618,98.6689,261.4483,0.00014467,2.016e-05,0.0,0 STARLINK-4266,1 52869U 22062AR  23283.51610212  .00002016  00000-0  14467-3 0  9992,2 52869  53.2186   9.8618 0001580  98.6689 261.4483 15.08850783 73529,6917.847,95.437,540.805,538.619,0.0
52869.0,STARLINK-4266,PAYLOAD,2023-10-11 12:13:59,15.08833434,0.0001423,53.219,5.4011,96.8707,263.2447,-7.7405e-05,-1.519e-05,0.0,0 STARLINK-4266,1 52869U 22062AR  23284.50971168 -.00001519  00000-0 -77405-4 0  9993,2 52869  53.2190   5.4011 0001423  96.8707 263.2447 15.08833434 73670,6917.9,95.438,540.75,538.781,0.0
52869.0,STARLINK-4266,PAYLOAD,2023-10-12 12:04:46,15.08846301,0.0001376,53.2184,0.9425,90.1258,269.9891,0.00036528,5.531e-05,0.0,0 STARLINK-4266,1 52869U 22062AR  23285.50331318  .00005531  00000-0  36528-3 0  9997,2 52869  53.2184   0.9425 0001376  90.1258 269.9891 15.08846301 73333,6917.861,95.437,540.678,538.774,0.0
52869.0,STARLINK-4266,PAYLOAD,2023-10-13 11:55:33,15.08848197,0.000123,53.2189,356.4841,83.3276,276.7856,0.00031596,4.745e-05,0.0,0 STARLINK-4266,1 52869U 22062AR  23286.49691573  .00004745  00000-0  31596-3 0  9994,2 52869  53.2189 356.4841 0001230  83.3276 276.7856 15.08848197 73974,6917.855,95.437,540.571,538.869,0.0
52869.0,STARLINK-4266,PAYLOAD,2023-10-13 21:27:51,15.08857454,0.0001137,53.218,354.6977,90.8691,269.2432,0.0004433,6.778e-05,0.0,0 STARLINK-4266,1 52869U 22062AR  23286.89435008  .00006778  00000-0  44330-3 0  9995,2 52869  53.2180 354.6977 0001137  90.8691 269.2432 15.08857454 73541,6917.827,95.436,540.479,538.905,0.0
52869.0,STARLINK-4266,PAYLOAD,2023-10-14 11:46:19,15.0885649,0.000154,53.219,352.0243,96.0635,264.0532,0.00027451,4.085e-05,0.0,0 STARLINK-4266,1 52869U 22062AR  23287.49050792  .00004085  00000-0  27451-3 0  9999,2 52869  53.2190 352.0243 0001540  96.0635 264.0532 15.08856490 73637,6917.83,95.437,540.76,538.63,0.0
52869.0,STARLINK-4266,PAYLOAD,2023-10-15 03:40:12,15.08830695,0.0001439,53.2175,349.0489,93.4692,266.6465,-0.00016939,-2.982e-05,0.0,0 STARLINK-4266,1 52869U 22062AR  23288.15291837 -.00002982  00000-0 -16939-3 0  9995,2 52869  53.2175 349.0489 0001439  93.4692 266.6465 15.08830695 74227,6917.909,95.438,540.769,538.778,0.0
52869.0,STARLINK-4266,PAYLOAD,2023-10-15 11:37:08,15.08825906,0.0001451,53.2174,347.5604,91.1552,268.9606,-0.00013804,-2.483e-05,0.0,0 STARLINK-4266,1 52869U 22062AR  23288.48412373 -.00002483  00000-0 -13804-3 0  9995,2 52869  53.2174 347.5604 0001451  91.1552 268.9606 15.08825906 73783,6917.923,95.438,540.792,538.785,0.0
52869.0,STARLINK-4266,PAYLOAD,2023-10-15 21:09:27,15.08831598,0.0001426,53.2171,345.7758,99.3072,260.8081,0.0001479,2.066e-05,0.0,0 STARLINK-4266,1 52869U 22062AR  23288.88156569  .00002066  00000-0  14790-3 0  9991,2 52869  53.2171 345.7758 0001426  99.3072 260.8081 15.08831598 73848,6917.906,95.438,540.758,538.785,0.0
